SL-4 R/B                
1 39679U 14021B   26024.91208264  .00016197  00000+0  37193-3 0  9997
2 39679  51.6065 190.6107 0099120 303.2516  55.8999 15.37803769649535
ALOS-2                  
1 39766U 14029A   26025.23096722  .00000934  00000+0  13199-3 0  9994
2 39766  97.9194 124.4517 0001447 106.3127 253.8244 14.79467970630441
YAOGAN-29               
1 41038U 15069A   26025.20670991  .00000128  00000+0  22480-4 0  9996
2 41038  98.0188  53.5114 0002702 109.2108 250.9398 14.82938673549435
ASTRO-H (HITOMI)        
1 41337U 16012A   26025.00157951  .00004670  00000+0  27701-3 0  9997
2 41337  30.9996 278.4090 0009922 254.3148 105.6395 15.09673973545626
HXMT (HUIYAN)           
1 42758U 17034A   26024.99692102  .00008489  00000+0  42899-3 0  9996
2 42758  43.0138 259.4804 0032942 316.4130  43.4117 15.16876338475900
CZ-2C R/B               
1 43521U 18054D   26024.95752396  .00258837  00000+0  91112-3 0  9992
2 43521  35.1305 245.3328 0012680 238.1328 121.8175 15.87351468421892
SAOCOM 1A               
1 43641U 18076A   26025.14867406  .00001155  00000+0  15158-3 0  9995
2 43641  97.8860 213.9406 0001520  84.5920 275.5467 14.82166783394917
H-2A R/B                
1 43682U 18084L   26025.14432164  .00029080  00000+0  73715-3 0  9998
2 43682  98.8766 233.2888 0026072 173.0062 187.1548 15.39328721399072
SAOCOM 1B               
1 46265U 20059A   26025.31492216  .00000865  00000+0  11523-3 0  9995
2 46265  97.8862 213.2040 0001307  88.5188 271.6175 14.82142819292323
CSS (TIANHE)            
1 48274U 21035A   26025.11748419  .00029997  00000+0  34841-3 0  9994
2 48274  41.4666 113.0026 0009952 356.5980   3.4790 15.61038306270801
COSMOS 2550             
1 48865U 21056A   26023.39368896 -.00000193  00000+0 -42471-7 0  9999
2 48865  67.1417 177.9415 0008427 270.0851  89.9337 15.33842763256517
CZ-2C R/B               
1 52794U 22058K   26025.13576458  .00040457  00000+0  65819-3 0  9999
2 52794  50.1884 181.8120 0042605  17.0143 343.2243 15.51183130203362
